NORAD_CAT_ID,OBJECT_NAME,OBJECT_TYPE,EPOCH,MEAN_MOTION,ECCENTRICITY,INCLINATION,RA_OF_ASC_NODE,ARG_OF_PERICENTER,MEAN_ANOMALY,BSTAR,MEAN_MOTION_DOT,MEAN_MOTION_DDOT,TLE_LINE0,TLE_LINE1,TLE_LINE2,SEMIMAJOR_AXIS,PERIOD,APOGEE,PERIGEE,DECAYED
52285.0,STARLINK-3775,PAYLOAD,2023-06-15 00:36:07,15.08840742,0.0001046,53.2158,272.3,92.6777,267.4335,1.5497e-05,-4.1e-07,0.0,0 STARLINK-3775,1 52285U 22041AA  23166.02508639 -.00000041  00000-0  15497-4 0  9998,2 52285  53.2158 272.3000 0001046  92.6777 267.4335 15.08840742 64831,6917.878,95.438,540.467,539.02,0.0
52285.0,STARLINK-3775,PAYLOAD,2023-06-15 13:19:13,15.08832038,0.0001114,53.2143,269.9237,99.5234,260.5884,-5.1973e-05,-1.115e-05,0.0,0 STARLINK-3775,1 52285U 22041AA  23166.55501730 -.00001115  00000-0 -51973-4 0  9994,2 52285  53.2143 269.9237 0001114  99.5234 260.5884 15.08832038 63683,6917.905,95.438,540.54,538.999,0.0
52285.0,STARLINK-3775,PAYLOAD,2023-06-15 16:29:59,15.08831386,0.0001157,53.2143,269.3292,99.2618,260.8505,-3.8062e-05,-8.93e-06,0.0,0 STARLINK-3775,1 52285U 22041AA  23166.68749782 -.00000893  00000-0 -38062-4 0  9995,2 52285  53.2143 269.3292 0001157  99.2618 260.8505 15.08831386 64935,6917.907,95.438,540.572,538.971,0.0
52285.0,STARLINK-3775,PAYLOAD,2023-06-16 00:26:54,15.0884205,0.0001034,53.2144,267.8423,103.2178,256.893,4.4995e-06,-2.16e-06,0.0,0 STARLINK-3775,1 52285U 22041AA  23167.01868948 -.00000216  00000-0  44995-5 0  9990,2 52285  53.2144 267.8423 0001034 103.2178 256.8930 15.08842050 64988,6917.874,95.437,540.454,539.024,0.0
52285.0,STARLINK-3775,PAYLOAD,2023-06-16 13:09:59,15.08836865,0.0001187,53.2144,265.4633,93.0444,267.0684,0.00031763,4.77e-05,0.0,0 STARLINK-3775,1 52285U 22041AA  23167.54860646  .00004770  00000-0  31763-3 0  9990,2 52285  53.2144 265.4633 0001187  93.0444 267.0684 15.08836865 63836,6917.89,95.438,540.576,538.934,0.0
52285.0,STARLINK-3775,PAYLOAD,2023-06-16 16:20:45,15.08821469,0.0001211,53.2149,264.8683,99.2077,260.9052,0.00061184,9.458e-05,0.0,0 STARLINK-3775,1 52285U 22041AA  23167.68108492  .00009458  00000-0  61184-3 0  9997,2 52285  53.2149 264.8683 0001211  99.2077 260.9052 15.08821469 63854,6917.937,95.439,540.64,538.964,0.0
52285.0,STARLINK-3775,PAYLOAD,2023-06-17 13:00:47,15.08829743,0.0001085,53.2148,261.0031,94.8225,265.2891,5.7556e-05,6.28e-06,0.0,0 STARLINK-3775,1 52285U 22041AA  23168.54221775  .00000628  00000-0  57556-4 0  9992,2 52285  53.2148 261.0031 0001085  94.8225 265.2891 15.08829743 63980,6917.912,95.438,540.527,539.026,0.0
52285.0,STARLINK-3775,PAYLOAD,2023-06-18 12:51:34,15.08844109,0.0001139,53.215,256.5419,95.9966,264.1156,3.1832e-05,2.19e-06,0.0,0 STARLINK-3775,1 52285U 22041AA  23169.53581213  .00000219  00000-0  31832-4 0  9993,2 52285  53.2150 256.5419 0001139  95.9966 264.1156 15.08844109 64139,6917.868,95.437,540.521,538.945,0.0
52285.0,STARLINK-3775,PAYLOAD,2023-06-19 12:42:21,15.08821033,0.0001129,53.2142,252.0826,99.934,260.1779,0.00043804,6.687e-05,0.0,0 STARLINK-3775,1 52285U 22041AA  23170.52941802  .00006687  00000-0  43804-3 0  9994,2 52285  53.2142 252.0826 0001129  99.9340 260.1779 15.08821033 65513,6917.938,95.439,540.584,539.022,0.0
52285.0,STARLINK-3775,PAYLOAD,2023-06-19 22:14:40,15.08838589,9.2e-05,53.2143,250.299,101.8861,258.2234,9.749e-05,1.264e-05,0.0,0 STARLINK-3775,1 52285U 22041AA  23170.92685519  .00001264  00000-0  97490-4 0  9995,2 52285  53.2143 250.2990 0000920 101.8861 258.2234 15.08838589 65579,6917.885,95.438,540.386,539.113,0.0
52285.0,STARLINK-3775,PAYLOAD,2023-06-20 04:36:12,15.08837733,0.0001045,53.2146,249.1083,104.9174,255.1934,5.218e-05,5.43e-06,0.0,0 STARLINK-3775,1 52285U 22041AA  23171.19181712  .00000543  00000-0  52180-4 0  9997,2 52285  53.2146 249.1083 0001045 104.9174 255.1934 15.08837733 64383,6917.887,95.438,540.475,539.029,0.0
52285.0,STARLINK-3775,PAYLOAD,2023-06-21 12:23:55,15.08838879,0.0001009,53.2143,243.1612,88.6968,271.414,0.00013341,1.836e-05,0.0,0 STARLINK-3775,1 52285U 22041AA  23172.51661446  .00001836  00000-0  13341-3 0  9992,2 52285  53.2143 243.1612 0001009  88.6968 271.4140 15.08838879 65812,6917.884,95.438,540.447,539.051,0.0
52285.0,STARLINK-3775,PAYLOAD,2023-06-22 23:22:24,15.08837337,8.27e-05,53.214,236.6159,97.6103,262.4983,0.00012365,1.681e-05,0.0,0 STARLINK-3775,1 52285U 22041AA  23173.97389335  .00001681  00000-0  12365-3 0  9990,2 52285  53.2140 236.6159 0000827  97.6103 262.4983 15.08837337 66038,6917.889,95.438,540.326,539.181,0.0
52285.0,STARLINK-3775,PAYLOAD,2023-06-24 08:45:30,15.08836727,0.000104,53.2143,230.3737,83.3858,276.7253,2.8457e-05,1.65e-06,0.0,0 STARLINK-3775,1 52285U 22041AA  23175.36493764  .00000165  00000-0  28457-4 0  9993,2 52285  53.2143 230.3737 0001040  83.3858 276.7253 15.08836727 66244,6917.89,95.438,540.475,539.036,0.0
52285.0,STARLINK-3775,PAYLOAD,2023-06-25 10:11:40,15.08841574,0.0001085,53.2142,225.6152,84.4831,275.6285,4.8827e-05,4.89e-06,0.0,0 STARLINK-3775,1 52285U 22041AA  23176.42477436  .00000489  00000-0  48827-4 0  9991,2 52285  53.2142 225.6152 0001085  84.4831 275.6285 15.08841574 66400,6917.876,95.437,540.491,538.99,0.0
52285.0,STARLINK-3775,PAYLOAD,2023-06-26 02:05:32,15.08824739,9.44e-05,53.2139,222.641,84.5072,275.6028,0.00013485,1.858e-05,0.0,0 STARLINK-3775,1 52285U 22041AA  23177.08718268  .00001858  00000-0  13485-3 0  9997,2 52285  53.2139 222.6410 0000944  84.5072 275.6028 15.08824739 66501,6917.927,95.439,540.445,539.139,0.0
52285.0,STARLINK-3775,PAYLOAD,2023-06-26 10:02:27,15.08838109,0.000105,53.2143,221.1548,84.2015,275.9096,4.974e-05,5.04e-06,0.0,0 STARLINK-3775,1 52285U 22041AA  23177.41837836  .00000504  00000-0  49740-4 0  9998,2 52285  53.2143 221.1548 0001050  84.2015 275.9096 15.08838109 66554,6917.886,95.438,540.478,539.025,0.0
52285.0,STARLINK-3775,PAYLOAD,2023-06-27 09:53:15,15.0883429,0.0001057,53.2139,216.6939,83.3542,276.757,2.13e-05,5.1e-07,0.0,0 STARLINK-3775,1 52285U 22041AA  23178.41198372  .00000051  00000-0  21300-4 0  9993,2 52285  53.2139 216.6939 0001057  83.3542 276.7570 15.08834290 66704,6917.898,95.438,540.494,539.032,0.0
52285.0,STARLINK-3775,PAYLOAD,2023-06-29 00:02:30,15.08837607,0.0001088,53.2141,209.5565,89.0317,271.08,5.8148e-05,6.38e-06,0.0,0 STARLINK-3775,1 52285U 22041AA  23180.00174307  .00000638  00000-0  58148-4 0  9994,2 52285  53.2141 209.5565 0001088  89.0317 271.0800 15.08837607 66945,6917.888,95.438,540.505,539.0,0.0
52285.0,STARLINK-3775,PAYLOAD,2023-06-30 23:44:04,15.08838014,0.000108,53.2139,200.6351,87.5954,272.5162,1.7661e-05,-7e-08,0.0,0 STARLINK-3775,1 52285U 22041AA  23181.98894276 -.00000007  00000-0  17661-4 0  9992,2 52285  53.2139 200.6351 0001080  87.5954 272.5162 15.08838014 67243,6917.886,95.438,540.499,539.004,0.0
52285.0,STARLINK-3775,PAYLOAD,2023-07-02 01:10:14,15.08839096,0.0001089,53.2141,195.8769,87.6066,272.5051,6.2952e-06,-1.88e-06,0.0,0 STARLINK-3775,1 52285U 22041AA  23183.04878274 -.00000188  00000-0  62952-5 0  9995,2 52285  53.2141 195.8769 0001089  87.6066 272.5051 15.08839096 67404,6917.883,95.438,540.502,538.995,0.0
52285.0,STARLINK-3775,PAYLOAD,2023-07-03 10:33:20,15.08836025,0.0001063,53.2151,189.6324,86.5973,273.514,4.1252e-05,3.69e-06,0.0,0 STARLINK-3775,1 52285U 22041AA  23184.43982496  .00000369  00000-0  41252-4 0  9990,2 52285  53.2151 189.6324 0001063  86.5973 273.5140 15.08836025 67612,6917.893,95.438,540.493,539.022,0.0
52285.0,STARLINK-3775,PAYLOAD,2023-07-04 16:45:40,15.08837116,0.0001063,53.2152,183.9825,86.5126,273.5988,2.4178e-05,9.7e-07,0.0,0 STARLINK-3775,1 52285U 22041AA  23185.69838733  .00000097  00000-0  24178-4 0  9999,2 52285  53.2152 183.9825 0001063  86.5126 273.5988 15.08837116 67809,6917.889,95.438,540.49,539.019,0.0
52285.0,STARLINK-3775,PAYLOAD,2023-07-06 00:33:23,15.08835934,0.0001058,53.2152,178.0351,88.2844,271.827,2.6847e-05,1.39e-06,0.0,0 STARLINK-3775,1 52285U 22041AA  23187.02319031  .00000139  00000-0  26847-4 0  9995,2 52285  53.2152 178.0351 0001058  88.2844 271.8270 15.08835934 68002,6917.893,95.438,540.49,539.026,0.0
52285.0,STARLINK-3775,PAYLOAD,2023-07-07 05:10:20,15.08837295,0.0001074,53.2152,172.6823,85.8675,274.244,2.6845e-05,1.39e-06,0.0,0 STARLINK-3775,1 52285U 22041AA  23188.21551190  .00000139  00000-0  26845-4 0  9999,2 52285  53.2152 172.6823 0001074  85.8675 274.2440 15.08837295 68186,6917.889,95.438,540.497,539.011,0.0
52285.0,STARLINK-3775,PAYLOAD,2023-07-08 08:11:52,15.08846002,0.0001149,53.2153,167.6268,85.5402,274.5721,8.7555e-05,1.106e-05,0.0,0 STARLINK-3775,1 52285U 22041AA  23189.34158364  .00001106  00000-0  87555-4 0  9990,2 52285  53.2153 167.6268 0001149  85.5402 274.5721 15.08846002 68352,6917.862,95.437,540.522,538.932,0.0
52285.0,STARLINK-3775,PAYLOAD,2023-07-08 16:08:48,15.08840028,0.0001148,53.2152,166.1398,85.6664,274.446,4.5715e-05,4.4e-06,0.0,0 STARLINK-3775,1 52285U 22041AA  23189.67278828  .00000440  00000-0  45715-4 0  9996,2 52285  53.2152 166.1398 0001148  85.6664 274.4460 15.08840028 68406,6917.88,95.438,540.539,538.951,0.0
52285.0,STARLINK-3775,PAYLOAD,2023-07-09 08:02:40,15.0883671,0.0001169,53.2159,163.1655,94.4914,265.6212,-8.0049e-06,-4.15e-06,0.0,0 STARLINK-3775,1 52285U 22041AA  23190.33519316 -.00000415  00000-0 -80049-5 0  9995,2 52285  53.2159 163.1655 0001169  94.4914 265.6212 15.08836710 68506,6917.89,95.438,540.564,538.947,0.0
52285.0,STARLINK-3775,PAYLOAD,2023-07-10 06:18:04,15.0884236,0.0001194,53.2158,159.0032,92.849,267.2639,2.5379e-05,1.16e-06,0.0,0 STARLINK-3775,1 52285U 22041AA  23191.26254889  .00000116  00000-0  25379-4 0  9999,2 52285  53.2158 159.0032 0001194  92.8490 267.2639 15.08842360 68641,6917.873,95.437,540.564,538.912,0.0
52285.0,STARLINK-3775,PAYLOAD,2023-07-11 07:44:14,15.08837914,0.0001207,53.2164,154.245,93.8238,266.2892,5.8513e-05,6.43e-06,0.0,0 STARLINK-3775,1 52285U 22041AA  23192.32239227  .00000643  00000-0  58513-4 0  9997,2 52285  53.2164 154.2450 0001207  93.8238 266.2892 15.08837914 68802,6917.887,95.438,540.587,538.917,0.0
